{"fetched_at":"2026-07-19T17:31:36.159Z","source":"https://celestrak.org/NORAD/elements/gp.php?NAME=HULIANWANG&FORMAT=JSON","constellation":"guowang","records":[{"OBJECT_NAME":"HULIANWANG DIGUI-12","OBJECT_ID":"2025-030B","EPOCH":"2026-07-19T04:40:48.692064","CLASSIFICATION_TYPE":"U","MEAN_MOTION":13.29322493,"ECCENTRICITY":0.00008936,"INCLINATION":50.002,"RA_OF_ASC_NODE":121.1527,"ARG_OF_PERICENTER":284.2783,"MEAN_ANOMALY":75.799,"EPHEMERIS_TYPE":0,"NORAD_CAT_ID":62972,"ELEMENT_SET_NO":999,"REV_AT_EPOCH":7011,"BSTAR":0.000081624139,"MEAN_MOTION_DOT":-8.6e-7,"MEAN_MOTION_DDOT":0},{"OBJECT_NAME":"HULIANWANG DIGUI-13","OBJECT_ID":"2025-030C","EPOCH":"2026-07-19T06:04:52.365504","CLASSIFICATION_TYPE":"U","MEAN_MOTION":13.2932461,"ECCENTRICITY":0.00007119,"INCLINATION":50.0023,"RA_OF_ASC_NODE":120.8112,"ARG_OF_PERICENTER":285.8256,"MEAN_ANOMALY":74.2537,"EPHEMERIS_TYPE":0,"NORAD_CAT_ID":62973,"ELEMENT_SET_NO":999,"REV_AT_EPOCH":7012,"BSTAR":0.0000752594,"MEAN_MOTION_DOT":-8.9e-7,"MEAN_MOTION_DDOT":0},{"OBJECT_NAME":"HULIANWANG DIGUI-14","OBJECT_ID":"2025-030D","EPOCH":"2026-07-19T05:28:51.888576","CLASSIFICATION_TYPE":"U","MEAN_MOTION":13.29327536,"ECCENTRICITY":0.00007219,"INCLINATION":50.0028,"RA_OF_ASC_NODE":120.7041,"ARG_OF_PERICENTER":290.6553,"MEAN_ANOMALY":69.4241,"EPHEMERIS_TYPE":0,"NORAD_CAT_ID":62974,"ELEMENT_SET_NO":999,"REV_AT_EPOCH":7012,"BSTAR":0.000068060721,"MEAN_MOTION_DOT":-9.2e-7,"MEAN_MOTION_DDOT":0},{"OBJECT_NAME":"HULIANWANG DIGUI-15","OBJECT_ID":"2025-030E","EPOCH":"2026-07-19T05:52:52.850496","CLASSIFICATION_TYPE":"U","MEAN_MOTION":13.29324604,"ECCENTRICITY":0.00008032,"INCLINATION":50.0024,"RA_OF_ASC_NODE":120.7709,"ARG_OF_PERICENTER":289.045,"MEAN_ANOMALY":71.0335,"EPHEMERIS_TYPE":0,"NORAD_CAT_ID":62975,"ELEMENT_SET_NO":999,"REV_AT_EPOCH":7012,"BSTAR":0.00008382464,"MEAN_MOTION_DOT":-8.5e-7,"MEAN_MOTION_DDOT":0},{"OBJECT_NAME":"HULIANWANG DIGUI-16","OBJECT_ID":"2025-030F","EPOCH":"2026-07-19T05:16:57.370944","CLASSIFICATION_TYPE":"U","MEAN_MOTION":13.29325687,"ECCENTRICITY":0.00006891,"INCLINATION":50.0045,"RA_OF_ASC_NODE":120.7314,"ARG_OF_PERICENTER":289.915,"MEAN_ANOMALY":70.1648,"EPHEMERIS_TYPE":0,"NORAD_CAT_ID":62976,"ELEMENT_SET_NO":999,"REV_AT_EPOCH":7012,"BSTAR":0.000085270259,"MEAN_MOTION_DOT":-8.4e-7,"MEAN_MOTION_DDOT":0},{"OBJECT_NAME":"HULIANWANG DIGUI-17","OBJECT_ID":"2025-030G","EPOCH":"2026-07-19T05:04:47.051616","CLASSIFICATION_TYPE":"U","MEAN_MOTION":13.2932581,"ECCENTRICITY":0.00008017,"INCLINATION":50.0058,"RA_OF_ASC_NODE":120.7394,"ARG_OF_PERICENTER":280.6248,"MEAN_ANOMALY":79.4533,"EPHEMERIS_TYPE":0,"NORAD_CAT_ID":62977,"ELEMENT_SET_NO":999,"REV_AT_EPOCH":7012,"BSTAR":0.000082947357,"MEAN_MOTION_DOT":-8.6e-7,"MEAN_MOTION_DDOT":0},{"OBJECT_NAME":"HULIANWANG DIGUI-18","OBJECT_ID":"2025-030H","EPOCH":"2026-07-19T04:52:43.300416","CLASSIFICATION_TYPE":"U","MEAN_MOTION":13.29327794,"ECCENTRICITY":0.00008286,"INCLINATION":50.0063,"RA_OF_ASC_NODE":120.7105,"ARG_OF_PERICENTER":279.8411,"MEAN_ANOMALY":80.2368,"EPHEMERIS_TYPE":0,"NORAD_CAT_ID":62978,"ELEMENT_SET_NO":999,"REV_AT_EPOCH":7012,"BSTAR":0.000078800069,"MEAN_MOTION_DOT":-8.7e-7,"MEAN_MOTION_DDOT":0},{"OBJECT_NAME":"HULIANWANG DIGUI-19","OBJECT_ID":"2025-030J","EPOCH":"2026-07-19T05:41:03.374304","CLASSIFICATION_TYPE":"U","MEAN_MOTION":13.29319119,"ECCENTRICITY":0.00007149,"INCLINATION":50.0048,"RA_OF_ASC_NODE":120.8261,"ARG_OF_PERICENTER":278.6976,"MEAN_ANOMALY":81.3815,"EPHEMERIS_TYPE":0,"NORAD_CAT_ID":62979,"ELEMENT_SET_NO":999,"REV_AT_EPOCH":7012,"BSTAR":0.000069940511,"MEAN_MOTION_DOT":-9.2e-7,"MEAN_MOTION_DDOT":0},{"OBJECT_NAME":"HULIANWANG DIGUI-20","OBJECT_ID":"2025-086A","EPOCH":"2026-07-19T06:48:46.591776","CLASSIFICATION_TYPE":"U","MEAN_MOTION":13.24411709,"ECCENTRICITY":0.00021111,"INCLINATION":86.5066,"RA_OF_ASC_NODE":302.3231,"ARG_OF_PERICENTER":111.6967,"MEAN_ANOMALY":248.4392,"EPHEMERIS_TYPE":0,"NORAD_CAT_ID":63687,"ELEMENT_SET_NO":999,"REV_AT_EPOCH":5912,"BSTAR":0.000044625219,"MEAN_MOTION_DOT":3.4e-7,"MEAN_MOTION_DDOT":0},{"OBJECT_NAME":"HULIANWANG DIGUI-21","OBJECT_ID":"2025-086B","EPOCH":"2026-07-19T06:59:42.163872","CLASSIFICATION_TYPE":"U","MEAN_MOTION":13.24410341,"ECCENTRICITY":0.0002059,"INCLINATION":86.5094,"RA_OF_ASC_NODE":302.387,"ARG_OF_PERICENTER":114.6191,"MEAN_ANOMALY":245.5158,"EPHEMERIS_TYPE":0,"NORAD_CAT_ID":63688,"ELEMENT_SET_NO":999,"REV_AT_EPOCH":5911,"BSTAR":0.000069945436,"MEAN_MOTION_DOT":4.5e-7,"MEAN_MOTION_DDOT":0},{"OBJECT_NAME":"HULIANWANG DIGUI-22","OBJECT_ID":"2025-086C","EPOCH":"2026-07-19T07:10:31.900512","CLASSIFICATION_TYPE":"U","MEAN_MOTION":13.24410692,"ECCENTRICITY":0.00021524,"INCLINATION":86.5059,"RA_OF_ASC_NODE":302.2417,"ARG_OF_PERICENTER":110.846,"MEAN_ANOMALY":249.2905,"EPHEMERIS_TYPE":0,"NORAD_CAT_ID":63689,"ELEMENT_SET_NO":999,"REV_AT_EPOCH":5911,"BSTAR":0.00010757275,"MEAN_MOTION_DOT":6.1e-7,"MEAN_MOTION_DDOT":0},{"OBJECT_NAME":"HULIANWANG DIGUI-23","OBJECT_ID":"2025-086D","EPOCH":"2026-07-19T07:32:15.350784","CLASSIFICATION_TYPE":"U","MEAN_MOTION":13.24410496,"ECCENTRICITY":0.00021287,"INCLINATION":86.5102,"RA_OF_ASC_NODE":302.4279,"ARG_OF_PERICENTER":111.3252,"MEAN_ANOMALY":248.811,"EPHEMERIS_TYPE":0,"NORAD_CAT_ID":63690,"ELEMENT_SET_NO":999,"REV_AT_EPOCH":5911,"BSTAR":0.00012174929,"MEAN_MOTION_DOT":6.7e-7,"MEAN_MOTION_DDOT":0},{"OBJECT_NAME":"HULIANWANG DIGUI-24","OBJECT_ID":"2025-086E","EPOCH":"2026-07-19T05:54:23.661216","CLASSIFICATION_TYPE":"U","MEAN_MOTION":13.24411181,"ECCENTRICITY":0.00020965,"INCLINATION":86.5109,"RA_OF_ASC_NODE":302.4863,"ARG_OF_PERICENTER":113.8345,"MEAN_ANOMALY":246.3009,"EPHEMERIS_TYPE":0,"NORAD_CAT_ID":63691,"ELEMENT_SET_NO":999,"REV_AT_EPOCH":5910,"BSTAR":0.00009983643,"MEAN_MOTION_DOT":5.7e-7,"MEAN_MOTION_DDOT":0},{"OBJECT_NAME":"HULIANWANG DIGUI-25","OBJECT_ID":"2025-086F","EPOCH":"2026-07-19T06:05:16.530720","CLASSIFICATION_TYPE":"U","MEAN_MOTION":13.24410523,"ECCENTRICITY":0.00020415,"INCLINATION":86.5047,"RA_OF_ASC_NODE":302.2253,"ARG_OF_PERICENTER":111.6425,"MEAN_ANOMALY":248.4927,"EPHEMERIS_TYPE":0,"NORAD_CAT_ID":63692,"ELEMENT_SET_NO":999,"REV_AT_EPOCH":5910,"BSTAR":0.000062649679,"MEAN_MOTION_DOT":4.2e-7,"MEAN_MOTION_DDOT":0},{"OBJECT_NAME":"HULIANWANG DIGUI-26","OBJECT_ID":"2025-086G","EPOCH":"2026-07-19T07:21:23.105088","CLASSIFICATION_TYPE":"U","MEAN_MOTION":13.24409523,"ECCENTRICITY":0.00022747,"INCLINATION":86.5096,"RA_OF_ASC_NODE":302.3977,"ARG_OF_PERICENTER":116.3492,"MEAN_ANOMALY":243.7876,"EPHEMERIS_TYPE":0,"NORAD_CAT_ID":63693,"ELEMENT_SET_NO":999,"REV_AT_EPOCH":5911,"BSTAR":0.00013283849,"MEAN_MOTION_DOT":7.2e-7,"MEAN_MOTION_DDOT":0},{"OBJECT_NAME":"HULIANWANG DIGUI-27","OBJECT_ID":"2025-086H","EPOCH":"2026-07-19T06:16:06.515328","CLASSIFICATION_TYPE":"U","MEAN_MOTION":13.24412341,"ECCENTRICITY":0.00021096,"INCLINATION":86.5057,"RA_OF_ASC_NODE":302.2697,"ARG_OF_PERICENTER":112.9483,"MEAN_ANOMALY":247.1874,"EPHEMERIS_TYPE":0,"NORAD_CAT_ID":63694,"ELEMENT_SET_NO":999,"REV_AT_EPOCH":5910,"BSTAR":0.000035142413,"MEAN_MOTION_DOT":3e-7,"MEAN_MOTION_DDOT":0}]}
