HULIANWANG DIGUI-12     
1 62972U 25030B   26200.19500801 -.00000086  00000+0  81624-4 0  9999
2 62972  50.0020 121.1527 0000893 284.2783  75.7990 13.29322493 70112
HULIANWANG DIGUI-13     
1 62973U 25030C   26200.25338386 -.00000089  00000+0  75259-4 0  9994
2 62973  50.0023 120.8112 0000711 285.8256  74.2537 13.29324610 70128
HULIANWANG DIGUI-14     
1 62974U 25030D   26200.22837834 -.00000092  00000+0  68061-4 0  9991
2 62974  50.0028 120.7041 0000721 290.6553  69.4241 13.29327536 70127
HULIANWANG DIGUI-15     
1 62975U 25030E   26200.24505614 -.00000085  00000+0  83825-4 0  9999
2 62975  50.0024 120.7709 0000803 289.0450  71.0335 13.29324604 70120
HULIANWANG DIGUI-16     
1 62976U 25030F   26200.22010846 -.00000084  00000+0  85270-4 0  9991
2 62976  50.0045 120.7314 0000689 289.9150  70.1648 13.29325687 70123
HULIANWANG DIGUI-17     
1 62977U 25030G   26200.21165569 -.00000086  00000+0  82947-4 0  9994
2 62977  50.0058 120.7394 0000801 280.6248  79.4533 13.29325810 70121
HULIANWANG DIGUI-18     
1 62978U 25030H   26200.20327894 -.00000087  00000+0  78800-4 0  9999
2 62978  50.0063 120.7105 0000828 279.8411  80.2368 13.29327794 70128
HULIANWANG DIGUI-19     
1 62979U 25030J   26200.23684461 -.00000092  00000+0  69941-4 0  9991
2 62979  50.0048 120.8261 0000714 278.6976  81.3815 13.29319119 70124
HULIANWANG DIGUI-20     
1 63687U 25086A   26200.28387259  .00000034  00000+0  44625-4 0  9996
2 63687  86.5066 302.3231 0002111 111.6967 248.4392 13.24411709 59124
HULIANWANG DIGUI-21     
1 63688U 25086B   26200.29146023  .00000045  00000+0  69945-4 0  9994
2 63688  86.5094 302.3870 0002059 114.6191 245.5158 13.24410341 59116
HULIANWANG DIGUI-22     
1 63689U 25086C   26200.29898033  .00000061  00000+0  10757-3 0  9994
2 63689  86.5059 302.2417 0002152 110.8460 249.2905 13.24410692 59115
HULIANWANG DIGUI-23     
1 63690U 25086D   26200.31406656  .00000067  00000+0  12175-3 0  9997
2 63690  86.5102 302.4279 0002128 111.3252 248.8110 13.24410496 59117
HULIANWANG DIGUI-24     
1 63691U 25086E   26200.24610719  .00000057  00000+0  99836-4 0  9996
2 63691  86.5109 302.4863 0002096 113.8345 246.3009 13.24411181 59109
HULIANWANG DIGUI-25     
1 63692U 25086F   26200.25366355  .00000042  00000+0  62650-4 0  9990
2 63692  86.5047 302.2253 0002041 111.6425 248.4927 13.24410523 59108
HULIANWANG DIGUI-26     
1 63693U 25086G   26200.30651742  .00000072  00000+0  13284-3 0  9995
2 63693  86.5096 302.3977 0002274 116.3492 243.7876 13.24409523 59111
HULIANWANG DIGUI-27     
1 63694U 25086H   26200.26118652  .00000030  00000+0  35142-4 0  9991
2 63694  86.5057 302.2697 0002109 112.9483 247.1874 13.24412341 59103
